{
    "links": {
        "self": "http://www.neowsapp.com/rest/v1/neo/3471926?api_key=iIulBulltgU6a56xZRHN4H3l9WmuAYTsLGpBGhQ2"
    },
    "id": "3471926",
    "neo_reference_id": "3471926",
    "name": "(2009 UO3)",
    "designation": "2009 UO3",
    "nasa_jpl_url": "http://ssd.jpl.nasa.gov/sbdb.cgi?sstr=3471926",
    "absolute_magnitude_h": 23.0,
    "estimated_diameter": {
        "kilometers": {
            "estimated_diameter_min": 0.0667659413,
            "estimated_diameter_max": 0.1492931834
        },
        "meters": {
            "estimated_diameter_min": 66.7659413495,
            "estimated_diameter_max": 149.2931834393
        },
        "miles": {
            "estimated_diameter_min": 0.0414864197,
            "estimated_diameter_max": 0.0927664547
        },
        "feet": {
            "estimated_diameter_min": 219.0483710172,
            "estimated_diameter_max": 489.807047955
        }
    },
    "is_potentially_hazardous_asteroid": false,
    "close_approach_data": [
        {
            "close_approach_date": "2009-10-23",
            "close_approach_date_full": "2009-Oct-23 12:44",
            "epoch_date_close_approach": 1256301840000,
            "relative_velocity": {
                "kilometers_per_second": "8.8361050842",
                "kilometers_per_hour": "31809.978303233",
                "miles_per_hour": "19765.4834629172"
            },
            "miss_distance": {
                "astronomical": "0.0420918188",
                "lunar": "16.3737175132",
                "kilometers": "6296846.436905956",
                "miles": "3912678.9425599528"
            },
            "orbiting_body": "Earth"
        }
    ],
    "orbital_data": {
        "orbit_id": "14",
        "orbit_determination_date": "2017-04-06 08:59:29",
        "first_observation_date": "2009-10-20",
        "last_observation_date": "2009-11-01",
        "data_arc_in_days": 12,
        "observations_used": 75,
        "orbit_uncertainty": "8",
        "minimum_orbit_intersection": ".0301911",
        "jupiter_tisserand_invariant": "3.226",
        "epoch_osculation": "2455128.5",
        "eccentricity": ".5814015693205807",
        "semi_major_axis": "2.453178586302333",
        "inclination": "8.535160746060386",
        "ascending_node_longitude": "23.95475422369811",
        "orbital_period": "1403.434584404154",
        "perihelion_distance": "1.026896706402513",
        "perihelion_argument": ".3400871265247108",
        "aphelion_distance": "3.879460466202153",
        "perihelion_time": "2455124.157338113917",
        "mean_anomaly": "1.113951655718691",
        "mean_motion": ".2565135589506957",
        "equinox": "J2000",
        "orbit_class": {
            "orbit_class_type": "AMO",
            "orbit_class_description": "Near-Earth asteroid orbits similar to that of 1221 Amor",
            "orbit_class_range": "1.017 AU < q (perihelion) < 1.3 AU"
        }
    },
    "is_sentry_object": false
}